[{"OBJECT_NAME":"KAZSTSAT","OBJECT_ID":"2018-099AB","EPOCH":"2026-03-09T14:51:18.118944","MEAN_MOTION":14.99620503,"ECCENTRICITY":0.0006528,"INCLINATION":97.4396,"RA_OF_ASC_NODE":105.0128,"ARG_OF_PERICENTER":11.1145,"MEAN_ANOMALY":349.0222,"EPHEMERIS_TYPE":0,"CLASSIFICATION_TYPE":"U","NORAD_CAT_ID":43783,"ELEMENT_SET_NO":999,"REV_AT_EPOCH":39638,"BSTAR":0.00011446,"MEAN_MOTION_DOT":1.354e-5,"MEAN_MOTION_DDOT":0},{"OBJECT_NAME":"STARLINK-5459","OBJECT_ID":"2023-021AT","EPOCH":"2026-03-09T16:26:52.969920","MEAN_MOTION":14.98337361,"ECCENTRICITY":0.00034326,"INCLINATION":70.0008,"RA_OF_ASC_NODE":164.4772,"ARG_OF_PERICENTER":272.8333,"MEAN_ANOMALY":87.2433,"EPHEMERIS_TYPE":0,"CLASSIFICATION_TYPE":"U","NORAD_CAT_ID":55669,"ELEMENT_SET_NO":999,"REV_AT_EPOCH":16927,"BSTAR":-4.705109e-5,"MEAN_MOTION_DOT":-6.55e-6,"MEAN_MOTION_DDOT":0}]
