KAZSTSAT                
1 43783U 18099AB  26068.61895971  .00001354  00000+0  11446-3 0  9991
2 43783  97.4396 105.0128 0006528  11.1145 349.0222 14.99620503396386
STARLINK-5459           
1 55669U 23021AT  26068.68533530 -.00000655  00000+0 -47051-4 0  9992
2 55669  70.0008 164.4772 0003433 272.8333  87.2433 14.98337361169277
